CUTE-1 (CO-55)          
1 27844U 03031E   26180.54129514  .00000288  00000+0  14333-3 0  9994
2 27844  98.6736 188.9448 0010276 143.6192 216.5687 14.24343053193434
CUBESAT XI-IV (CO-57)   
1 27848U 03031J   26179.55199356  .00000229  00000+0  11941-3 0  9995
2 27848  98.6768 187.6716 0009707 163.9321 196.2167 14.23626546192990
CUBESAT XI-V            
1 28895U 05043F   26180.36105506  .00001505  00000+0  24408-3 0  9998
2 28895  98.2996 336.2392 0014485 162.3137 197.8576 14.72664004103540
CUTE-1.7+APD II (CO-65) 
1 32785U 08021C   26180.51211142  .00004959  00000+0  31281-3 0  9994
2 32785  97.8273 162.1877 0008501 358.9608   1.1601 15.09565074987058
CANX-2                  
1 32790U 08021H   26179.91830938  .00003017  00000+0  21301-3 0  9998
2 32790  97.8633 159.9248 0010505  14.9344 345.2190 15.05697872986572
SEEDS II (CO-66)        
1 32791U 08021J   26180.53796132  .00017135  00000+0  53678-3 0  9994
2 32791  97.7514 179.0284 0001003 198.0184 162.1022 15.33164845989182
SWISSCUBE               
1 35932U 09051B   26180.27846234  .00001009  00000+0  20867-3 0  9995
2 35932  98.4027  88.3771 0006839 163.8418 196.3002 14.62503730890925
BEESAT-1                
1 35933U 09051C   26179.67813002  .00000785  00000+0  16739-3 0  9998
2 35933  98.3955  87.3776 0004989 176.9996 183.1235 14.61737811890862
ITUPSAT1                
1 35935U 09051E   26179.54206212  .00000711  00000+0  15671-3 0  9998
2 35935  98.4040  86.4193 0006875 194.0038 166.0972 14.60456331890397
TISAT 1                 
1 36799U 10035E   26180.33176874  .00019191  00000+0  61988-3 0  9994
2 36799  98.0710 127.9619 0003075 148.1081 212.0345 15.32162415869565
AEROCUBE 4.5A           
1 38767U 12048K   26179.82591045  .01481135  17178-2  11602-2 0  9996
2 38767  64.6159 343.7911 0018389 262.2043  97.7041 16.14389118374521
STRAND-1                
1 39090U 13009E   26180.44866124  .00000299  00000+0  11477-3 0  9998
2 39090  98.3924   0.3813 0008423 186.2381 173.8702 14.37170518698827
BRITE-AUSTRIA           
1 39091U 13009F   26180.46684300  .00000180  00000+0  75824-4 0  9991
2 39091  98.3998 359.5988 0009768 196.9876 163.0985 14.36546813698818
NEE-01 PEGASO           
1 39151U 13018B   26179.31888920  .00002156  00000+0  20921-3 0  9996
2 39151  98.1232 323.8378 0013556 125.0039 235.2454 14.93713938712362
POPACS 2                
1 39269U 13055E   26179.85130610  .00014026  00000+0  23481-3 0  9995
2 39269  80.9909 130.8393 0416343 156.3196 205.7817 14.91518117664953
POPACS 3                
1 39270U 13055F   26179.79984126  .00009912  00000+0  23370-3 0  9994
2 39270  81.0000 216.5952 0550942  34.6478 328.9340 14.56334733640243
ZACUBE-1 (TSHEPISOSAT)  
1 39417U 13066B   26179.93847879  .00002723  00000+0  21285-3 0  9994
2 39417  97.8045 142.3355 0042448 207.8298 152.0656 15.01250622682498
WNISAT-1                
1 39423U 13066H   26180.35789738  .00001246  00000+0  23454-3 0  9997
2 39423  97.7214 328.6511 0162743 193.0815 166.6141 14.58086653668505
TRITON-1                
1 39427U 13066M   26180.51870502  .00001888  00000+0  23030-3 0  9991
2 39427  97.8245  90.0451 0089321 193.1481 166.7404 14.81745421675914
GOMX-1                  
1 39430U 13066Q   26180.51063360  .00001663  00000+0  25409-3 0  9994
2 39430  97.6476  20.1957 0129591  38.4087 322.6258 14.69500920671728
CUBEBUG-2 (LO-74)       
1 39440U 13066AA  26180.32123062  .00004338  00000+0  40121-3 0  9990
2 39440  97.8907 129.3513 0057100 348.8931  11.1023 14.93858905678804
NEE-02 KRYSAOR          
1 39441U 13066AB  26180.32437912  .00002628  00000+0  29043-3 0  9993
2 39441  97.8896 119.4528 0066883  31.1697 329.3459 14.86673392678003
FUNCUBE-1 (AO-73)       
1 39444U 13066AE  26179.92186698  .00006331  00000+0  39163-3 0  9991
2 39444  97.8277 151.6136 0036884 160.9318 199.3301 15.09627566681431
UWE-3                   
1 39446U 13066AG  26179.84552922  .00002989  00000+0  25871-3 0  9997
2 39446  97.8711 135.9993 0046889 281.4584  78.1373 14.97114508679323
BRITE-CA1 (TORONTO)     
1 40020U 14033L   26180.33571178  .00000940  00000+0  14871-3 0  9995
2 40020  97.9753 309.0406 0077443 237.4573 121.9137 14.72695672644003
DUCHIFAT-1              
1 40021U 14033M   26179.97276446  .00117244  00000+0  10875-2 0  9999
2 40021  98.0456 240.8096 0000645 103.8669 256.2662 15.67092926657596
NANOSATC-BR1            
1 40024U 14033Q   26179.63845997  .00016168  00000+0  52837-3 0  9996
2 40024  98.0715 213.0430 0005155 135.6679 224.4974 15.31817768655733
QB50P1                  
1 40025U 14033R   26180.53975531  .00007132  00000+0  34967-3 0  9991
2 40025  98.0957 192.5529 0009128 172.2235 187.9140 15.18442582654900
QB50P2                  
1 40032U 14033Y   26179.92091746  .00006503  00000+0  34883-3 0  9995
2 40032  98.0748 177.5324 0009015 128.4795 231.7245 15.15307275654440
PERSEUS-M2              
1 40037U 14033AD  26180.50786589  .00000547  00000+0  54828-4 0  9996
2 40037  97.9970 131.3005 0010210 259.5422 100.4648 14.95546027652620
